NORAD_CAT_ID,OBJECT_NAME,OBJECT_TYPE,EPOCH,MEAN_MOTION,ECCENTRICITY,INCLINATION,RA_OF_ASC_NODE,ARG_OF_PERICENTER,MEAN_ANOMALY,BSTAR,MEAN_MOTION_DOT,MEAN_MOTION_DDOT,TLE_LINE0,TLE_LINE1,TLE_LINE2,SEMIMAJOR_AXIS,PERIOD,APOGEE,PERIGEE,DECAYED
49428.0,STARLINK-3121,PAYLOAD,2023-06-20 06:12:58,15.08848968,0.0001562,53.2177,8.802,81.9808,278.1362,7.5348e-05,9.12e-06,0.0,0 STARLINK-3121,1 49428U 21104W   23171.25901042  .00000912  00000-0  75348-4 0  9995,2 49428  53.2177   8.8020 0001562  81.9808 278.1362 15.08848968 89733,6917.853,95.437,540.799,538.637,0.0
49428.0,STARLINK-3121,PAYLOAD,2023-06-20 12:34:30,15.0884805,0.000115,53.2173,7.6131,76.2052,283.9068,6.2668e-05,7.1e-06,0.0,0 STARLINK-3121,1 49428U 21104W   23171.52396887  .00000710  00000-0  62668-4 0  9997,2 49428  53.2173   7.6131 0001150  76.2052 283.9068 15.08848050 88705,6917.856,95.437,540.516,538.925,0.0
49428.0,STARLINK-3121,PAYLOAD,2023-06-20 20:31:26,15.08844188,9.11e-05,53.2173,6.1266,79.9464,280.1631,0.00012324,1.674e-05,0.0,0 STARLINK-3121,1 49428U 21104W   23171.85516849  .00001674  00000-0  12324-3 0  9998,2 49428  53.2173   6.1266 0000911  79.9464 280.1631 15.08844188 88757,6917.868,95.437,540.363,539.102,0.0
49428.0,STARLINK-3121,PAYLOAD,2023-06-20 22:06:49,15.08849743,8.89e-05,53.2175,5.8293,78.6926,281.4166,0.00020047,2.905e-05,0.0,0 STARLINK-3121,1 49428U 21104W   23171.92140771  .00002905  00000-0  20047-3 0  9992,2 49428  53.2175   5.8293 0000889  78.6926 281.4166 15.08849743 88768,6917.851,95.437,540.331,539.101,0.0
49428.0,STARLINK-3121,PAYLOAD,2023-06-21 18:46:50,15.08843399,8.58e-05,53.2173,1.9646,84.2882,275.8208,0.00032898,4.952e-05,0.0,0 STARLINK-3121,1 49428U 21104W   23172.78253077  .00004952  00000-0  32898-3 0  9992,2 49428  53.2173   1.9646 0000858  84.2882 275.8208 15.08843399 89963,6917.87,95.437,540.329,539.141,0.0
49428.0,STARLINK-3121,PAYLOAD,2023-06-21 20:22:13,15.08845469,8.94e-05,53.2174,1.6669,83.0792,277.0302,0.00039358,5.983e-05,0.0,0 STARLINK-3121,1 49428U 21104W   23172.84877025  .00005983  00000-0  39358-3 0  9997,2 49428  53.2174   1.6669 0000894  83.0792 277.0302 15.08845469 88905,6917.864,95.437,540.347,539.11,0.0
49428.0,STARLINK-3121,PAYLOAD,2023-06-22 05:54:32,15.08839806,6.19e-05,53.2178,359.882,98.5516,261.5546,0.00015708,2.213e-05,0.0,0 STARLINK-3121,1 49428U 21104W   23173.24621088  .00002213  00000-0  15708-3 0  9994,2 49428  53.2178 359.8820 0000619  98.5516 261.5546 15.08839806 90039,6917.881,95.438,540.174,539.318,0.0
49428.0,STARLINK-3121,PAYLOAD,2023-06-23 05:45:20,15.08837324,0.0001097,53.218,355.4215,81.3356,278.776,0.00012493,1.701e-05,0.0,0 STARLINK-3121,1 49428U 21104W   23174.23981514  .00001701  00000-0  12493-3 0  9996,2 49428  53.2180 355.4215 0001097  81.3356 278.7760 15.08837324 90182,6917.889,95.438,540.512,538.995,0.0
49428.0,STARLINK-3121,PAYLOAD,2023-06-23 23:14:34,15.08855102,8.08e-05,53.2185,352.1506,69.6751,290.4328,0.00095524,0.00014954,0.0,0 STARLINK-3121,1 49428U 21104W   23174.96845173  .00014954  00000-0  95524-3 0  9996,2 49428  53.2185 352.1506 0000808  69.6751 290.4328 15.08855102 90298,6917.834,95.437,540.258,539.14,0.0
49428.0,STARLINK-3121,PAYLOAD,2023-06-24 16:43:49,15.08843305,0.0001106,53.2184,348.8867,41.661,318.4466,0.00038919,5.912e-05,0.0,0 STARLINK-3121,1 49428U 21104W   23175.69709717  .00005912  00000-0  38919-3 0  9999,2 49428  53.2184 348.8867 0001106  41.6610 318.4466 15.08843305 90404,6917.87,95.437,540.5,538.97,0.0
49428.0,STARLINK-3121,PAYLOAD,2023-06-24 23:05:21,15.08858093,8.94e-05,53.2185,347.6906,71.9227,288.1862,0.0010655,0.00016718,0.0,0 STARLINK-3121,1 49428U 21104W   23175.96205310  .00016718  00000-0  10655-2 0  9991,2 49428  53.2185 347.6906 0000894  71.9227 288.1862 15.08858093 90446,6917.825,95.436,540.309,539.072,0.0
49428.0,STARLINK-3121,PAYLOAD,2023-06-25 16:34:36,15.08850963,9.06e-05,53.2184,344.4208,85.4299,274.6796,0.0013821,0.00021783,0.0,0 STARLINK-3121,1 49428U 21104W   23176.69069611  .00021783  00000-0  13821-2 0  9990,2 49428  53.2184 344.4208 0000906  85.4299 274.6796 15.08850963 90554,6917.847,95.437,540.339,539.085,0.0
49428.0,STARLINK-3121,PAYLOAD,2023-06-26 03:42:18,15.0884401,8.86e-05,53.2184,342.3393,95.462,264.6473,0.00061065,9.445e-05,0.0,0 STARLINK-3121,1 49428U 21104W   23177.15437634  .00009445  00000-0  61065-3 0  9991,2 49428  53.2184 342.3393 0000886  95.4620 264.6473 15.08844010 90627,6917.868,95.437,540.346,539.12,0.0
49428.0,STARLINK-3121,PAYLOAD,2023-06-26 18:00:46,15.08843202,9.41e-05,53.2187,339.6639,103.3247,256.785,0.00059846,9.25e-05,0.0,0 STARLINK-3121,1 49428U 21104W   23177.75053731  .00009250  00000-0  59846-3 0  9997,2 49428  53.2187 339.6639 0000941 103.3247 256.7850 15.08843202 90711,6917.871,95.437,540.387,539.085,0.0
49428.0,STARLINK-3121,PAYLOAD,2023-06-27 09:54:37,15.08841639,8.92e-05,53.218,336.6905,104.5086,255.6005,0.00040373,6.144e-05,0.0,0 STARLINK-3121,1 49428U 21104W   23178.41293903  .00006144  00000-0  40373-3 0  9992,2 49428  53.2180 336.6905 0000892 104.5086 255.6005 15.08841639 90819,6917.875,95.437,540.357,539.123,0.0
49428.0,STARLINK-3121,PAYLOAD,2023-06-28 03:23:52,15.08834207,8.33e-05,53.2174,333.4174,108.2126,251.8957,-3.782e-05,-8.89e-06,0.0,0 STARLINK-3121,1 49428U 21104W   23179.14158016 -.00000889  00000-0 -37820-4 0  9994,2 49428  53.2174 333.4174 0000833 108.2126 251.8957 15.08834207 90925,6917.898,95.438,540.339,539.187,0.0
49428.0,STARLINK-3121,PAYLOAD,2023-06-28 17:42:20,15.0884528,8.24e-05,53.2172,330.7424,105.6748,254.4335,0.00029268,4.374e-05,0.0,0 STARLINK-3121,1 49428U 21104W   23179.73773849  .00004374  00000-0  29268-3 0  9993,2 49428  53.2172 330.7424 0000824 105.6748 254.4335 15.08845280 91015,6917.864,95.437,540.299,539.159,0.0
49428.0,STARLINK-3121,PAYLOAD,2023-06-29 17:33:07,15.08842858,8.89e-05,53.2178,326.2791,87.1258,272.9835,0.0001417,1.968e-05,0.0,0 STARLINK-3121,1 49428U 21104W   23180.73134097  .00001968  00000-0  14170-3 0  9993,2 49428  53.2178 326.2791 0000889  87.1258 272.9835 15.08842858 91163,6917.872,95.437,540.352,539.122,0.0
49428.0,STARLINK-3121,PAYLOAD,2023-06-30 15:48:31,15.08843604,9.4e-05,53.2174,322.1182,87.0104,273.0996,0.00015705,2.213e-05,0.0,0 STARLINK-3121,1 49428U 21104W   23181.65870255  .00002213  00000-0  15705-3 0  9997,2 49428  53.2174 322.1182 0000940  87.0104 273.0996 15.08843604 91301,6917.869,95.437,540.385,539.084,0.0
49428.0,STARLINK-3121,PAYLOAD,2023-07-01 09:17:46,15.08839795,9.74e-05,53.2172,318.8467,84.0644,276.0459,0.0001547,2.175e-05,0.0,0 STARLINK-3121,1 49428U 21104W   23182.38734484  .00002175  00000-0  15470-3 0  9997,2 49428  53.2172 318.8467 0000974  84.0644 276.0459 15.08839795 91415,6917.881,95.438,540.42,539.072,0.0
49428.0,STARLINK-3121,PAYLOAD,2023-07-01 18:50:04,15.08852825,9.15e-05,53.2182,317.0622,88.3657,271.744,-3.544e-05,-8.52e-06,0.0,0 STARLINK-3121,1 49428U 21104W   23182.78477746 -.00000852  00000-0 -35440-4 0  9998,2 49428  53.2182 317.0622 0000915  88.3657 271.7440 15.08852825 91473,6917.841,95.437,540.339,539.073,0.0
49428.0,STARLINK-3121,PAYLOAD,2023-07-02 09:08:33,15.08840151,9.94e-05,53.2178,314.3869,88.014,272.0966,9.7062e-05,1.257e-05,0.0,0 STARLINK-3121,1 49428U 21104W   23183.38094435  .00001257  00000-0  97062-4 0  9991,2 49428  53.2178 314.3869 0000994  88.0140 272.0966 15.08840151 91568,6917.88,95.438,540.433,539.057,0.0
49428.0,STARLINK-3121,PAYLOAD,2023-07-03 12:10:06,15.08842353,9.01e-05,53.2186,309.333,91.6104,268.4991,9.9787e-05,1.301e-05,0.0,0 STARLINK-3121,1 49428U 21104W   23184.50702257  .00001301  00000-0  99787-4 0  9990,2 49428  53.2186 309.3330 0000901  91.6104 268.4991 15.08842353 91734,6917.873,95.437,540.361,539.115,0.0
49428.0,STARLINK-3121,PAYLOAD,2023-07-04 12:00:54,15.08835063,8.31e-05,53.2176,304.8733,89.4906,270.6181,-1.0434e-05,-4.54e-06,0.0,0 STARLINK-3121,1 49428U 21104W   23185.50062634 -.00000454  00000-0 -10434-4 0  9991,2 49428  53.2176 304.8733 0000831  89.4906 270.6181 15.08835063 91889,6917.895,95.438,540.335,539.186,0.0
49428.0,STARLINK-3121,PAYLOAD,2023-07-05 00:43:59,15.08842945,8.76e-05,53.2189,302.4942,96.009,264.1002,3.3758e-05,2.5e-06,0.0,0 STARLINK-3121,1 49428U 21104W   23186.03054517  .00000250  00000-0  33758-4 0  9997,2 49428  53.2189 302.4942 0000876  96.0090 264.1002 15.08842945 91962,6917.871,95.437,540.342,539.13,0.0
49428.0,STARLINK-3121,PAYLOAD,2023-07-06 08:31:42,15.08836278,8.85e-05,53.2177,296.5462,83.4739,276.6354,0.00026633,3.953e-05,0.0,0 STARLINK-3121,1 49428U 21104W   23187.35535095  .00003953  00000-0  26633-3 0  9994,2 49428  53.2177 296.5462 0000885  83.4739 276.6354 15.08836278 92162,6917.892,95.438,540.369,539.145,0.0
49428.0,STARLINK-3121,PAYLOAD,2023-07-07 09:57:52,15.08841708,8.56e-05,53.2169,291.788,85.4363,274.6727,0.00013832,1.914e-05,0.0,0 STARLINK-3121,1 49428U 21104W   23188.41518758  .00001914  00000-0  13832-3 0  9991,2 49428  53.2169 291.7880 0000856  85.4363 274.6727 15.08841708 92321,6917.875,95.437,540.332,539.148,0.0
49428.0,STARLINK-3121,PAYLOAD,2023-07-07 16:19:24,15.08851896,7.97e-05,53.2177,290.5983,92.5194,267.5889,0.00014959,2.095e-05,0.0,0 STARLINK-3121,1 49428U 21104W   23188.68013987  .00002095  00000-0  14959-3 0  9996,2 49428  53.2177 290.5983 0000797  92.5194 267.5889 15.08851896 92369,6917.844,95.437,540.26,539.158,0.0
49428.0,STARLINK-3121,PAYLOAD,2023-07-08 00:16:20,15.0884718,7.72e-05,53.2173,289.1118,86.5064,273.6016,0.00011526,1.548e-05,0.0,0 STARLINK-3121,1 49428U 21104W   23189.01134281  .00001548  00000-0  11526-3 0  9994,2 49428  53.2173 289.1118 0000772  86.5064 273.6016 15.08847180 92418,6917.858,95.437,540.258,539.189,0.0
49428.0,STARLINK-3121,PAYLOAD,2023-07-09 00:07:07,15.08835111,7.58e-05,53.2178,284.6522,86.2947,273.8132,-2.5974e-05,-7.01e-06,0.0,0 STARLINK-3121,1 49428U 21104W   23190.00494880 -.00000701  00000-0 -25974-4 0  9994,2 49428  53.2178 284.6522 0000758  86.2947 273.8132 15.08835111 92561,6917.895,95.438,540.285,539.236,0.0
